NORAD_CAT_ID,OBJECT_NAME,OBJECT_TYPE,EPOCH,MEAN_MOTION,ECCENTRICITY,INCLINATION,RA_OF_ASC_NODE,ARG_OF_PERICENTER,MEAN_ANOMALY,BSTAR,MEAN_MOTION_DOT,MEAN_MOTION_DDOT,TLE_LINE0,TLE_LINE1,TLE_LINE2,SEMIMAJOR_AXIS,PERIOD,APOGEE,PERIGEE,DECAYED
55922.0,STARLINK-5863,PAYLOAD,2023-12-12 20:27:17,14.98330938,0.0002898,69.998,206.4878,266.1287,93.9541,5.9107e-05,6.12e-06,0.0,0 STARLINK-5863,1 55922U 23037J   23346.85228178  .00000612  00000-0  59107-4 0  9992,2 55922  69.9980 206.4878 0002898 266.1287  93.9541 14.98330938 41329,6950.19,96.107,574.069,570.041,0.0
55922.0,STARLINK-5863,PAYLOAD,2023-12-12 22:03:25,14.98331328,0.0002887,69.9981,206.3196,265.5996,94.4833,6.2911e-05,6.58e-06,0.0,0 STARLINK-5863,1 55922U 23037J   23346.91904136  .00000658  00000-0  62911-4 0  9991,2 55922  69.9981 206.3196 0002887 265.5996  94.4833 14.98331328 40996,6950.189,96.107,574.06,570.047,0.0
55922.0,STARLINK-5863,PAYLOAD,2023-12-13 01:15:41,14.98332677,0.0002872,69.9981,205.9834,263.9585,96.1247,7.4607e-05,7.97e-06,0.0,0 STARLINK-5863,1 55922U 23037J   23347.05255986  .00000797  00000-0  74607-4 0  9998,2 55922  69.9981 205.9834 0002872 263.9585  96.1247 14.98332677 41010,6950.185,96.107,574.046,570.054,0.0
55922.0,STARLINK-5863,PAYLOAD,2023-12-13 22:05:26,14.98330473,0.0002762,69.9984,203.7953,261.2665,98.8181,-2.211e-05,-3.57e-06,0.0,0 STARLINK-5863,1 55922U 23037J   23347.92044241 -.00000357  00000-0 -22110-4 0  9990,2 55922  69.9984 203.7953 0002762 261.2665  98.8181 14.98330473 41141,6950.191,96.107,573.976,570.137,0.0
55922.0,STARLINK-5863,PAYLOAD,2023-12-13 23:41:34,14.98330356,0.0002766,69.9984,203.6269,262.1147,97.9698,-2.3651e-05,-3.75e-06,0.0,0 STARLINK-5863,1 55922U 23037J   23347.98720251 -.00000375  00000-0 -23651-4 0  9999,2 55922  69.9984 203.6269 0002766 262.1147  97.9698 14.98330356 41490,6950.192,96.107,573.979,570.134,0.0
55922.0,STARLINK-5863,PAYLOAD,2023-12-14 20:31:22,14.98295584,0.0002767,69.9985,201.4383,255.0762,105.0091,-0.00038665,-4.699e-05,0.0,0 STARLINK-5863,1 55922U 23037J   23348.85511754 -.00004699  00000-0 -38665-3 0  9995,2 55922  69.9985 201.4383 0002767 255.0762 105.0091 14.98295584 41625,6950.299,96.109,574.087,570.241,0.0
55922.0,STARLINK-5863,PAYLOAD,2023-12-14 22:07:29,14.98300379,0.0002764,69.9985,201.2698,247.612,112.4747,-0.00033052,-4.031e-05,0.0,0 STARLINK-5863,1 55922U 23037J   23348.92187367 -.00004031  00000-0 -33052-3 0  9997,2 55922  69.9985 201.2698 0002764 247.6120 112.4747 14.98300379 41296,6950.284,96.109,574.071,570.228,0.0
55922.0,STARLINK-5863,PAYLOAD,2023-12-14 23:43:37,14.98313809,0.0002681,69.9987,201.1024,255.1978,104.8884,-0.00016371,-2.045e-05,0.0,0 STARLINK-5863,1 55922U 23037J   23348.98862348 -.00002045  00000-0 -16371-3 0  9990,2 55922  69.9987 201.1024 0002681 255.1978 104.8884 14.98313809 41641,6950.243,96.108,573.971,570.245,0.0
55922.0,STARLINK-5863,PAYLOAD,2023-12-15 18:57:13,14.9832129,0.0002821,69.9983,199.0798,271.1025,88.9811,-2.7086e-06,-1.25e-06,0.0,0 STARLINK-5863,1 55922U 23037J   23349.78973994 -.00000125  00000-0 -27086-5 0  9993,2 55922  69.9983 199.0798 0002821 271.1025  88.9811 14.98321290 41765,6950.22,96.108,574.045,570.124,0.0
55922.0,STARLINK-5863,PAYLOAD,2023-12-15 22:09:29,14.98323695,0.0003198,69.9975,198.7428,276.4196,83.6598,-1.6135e-05,-2.86e-06,0.0,0 STARLINK-5863,1 55922U 23037J   23349.92325923 -.00000286  00000-0 -16135-4 0  9992,2 55922  69.9975 198.7428 0003198 276.4196  83.6598 14.98323695 41447,6950.212,96.107,574.3,569.855,0.0
55922.0,STARLINK-5863,PAYLOAD,2023-12-16 14:10:50,14.98306041,0.0003308,69.9976,197.0598,273.9218,86.1563,0.00038056,4.448e-05,0.0,0 STARLINK-5863,1 55922U 23037J   23350.59086096  .00004448  00000-0  38056-3 0  9999,2 55922  69.9976 197.0598 0003308 273.9218  86.1563 14.98306041 41545,6950.267,96.109,574.431,569.833,0.0
55922.0,STARLINK-5863,PAYLOAD,2023-12-16 18:59:14,14.98308942,0.0003322,69.9976,196.5549,274.5331,85.5449,0.00038499,4.501e-05,0.0,0 STARLINK-5863,1 55922U 23037J   23350.79114186  .00004501  00000-0  38499-3 0  9994,2 55922  69.9976 196.5549 0003322 274.5331  85.5449 14.98308942 41913,6950.258,96.108,574.432,569.814,0.0
55922.0,STARLINK-5863,PAYLOAD,2023-12-16 22:11:30,14.98308345,0.0003295,69.9977,196.2186,274.2466,85.8317,0.00042958,5.034e-05,0.0,0 STARLINK-5863,1 55922U 23037J   23350.92466252  .00005034  00000-0  42958-3 0  9990,2 55922  69.9977 196.2186 0003295 274.2466  85.8317 14.98308345 41591,6950.26,96.108,574.415,569.835,0.0
55922.0,STARLINK-5863,PAYLOAD,2023-12-16 23:47:38,14.98318416,0.0003436,69.9978,196.0504,275.0702,85.0065,0.00027777,3.222e-05,0.0,0 STARLINK-5863,1 55922U 23037J   23350.99142055  .00003222  00000-0  27777-3 0  9998,2 55922  69.9978 196.0504 0003436 275.0702  85.0065 14.98318416 41944,6950.229,96.108,574.482,569.706,0.0
55922.0,STARLINK-5863,PAYLOAD,2023-12-17 14:12:51,14.9833365,0.0003063,69.9978,194.5355,269.0207,91.0601,8.6427e-05,9.38e-06,0.0,0 STARLINK-5863,1 55922U 23037J   23351.59225727  .00000938  00000-0  86427-4 0  9992,2 55922  69.9978 194.5355 0003063 269.0207  91.0601 14.98333650 41692,6950.182,96.107,574.175,569.918,0.0
55922.0,STARLINK-5863,PAYLOAD,2023-12-17 19:01:15,14.98334344,0.0003056,69.9979,194.0306,269.2725,90.8084,9.0664e-05,9.89e-06,0.0,0 STARLINK-5863,1 55922U 23037J   23351.79253618  .00000989  00000-0  90664-4 0  9998,2 55922  69.9979 194.0306 0003056 269.2725  90.8084 14.98334344 42068,6950.179,96.107,574.168,569.92,0.0
55922.0,STARLINK-5863,PAYLOAD,2023-12-17 22:13:30,14.98337536,0.0002971,69.998,193.6943,266.8002,93.2817,0.00012736,1.427e-05,0.0,0 STARLINK-5863,1 55922U 23037J   23351.92605258  .00001427  00000-0  12736-3 0  9995,2 55922  69.9980 193.6943 0002971 266.8002  93.2817 14.98337536 41749,6950.17,96.107,574.099,569.97,0.0
55922.0,STARLINK-5863,PAYLOAD,2023-12-18 14:14:50,14.98345183,0.000295,69.998,192.0112,269.5597,90.5224,0.00011132,1.236e-05,0.0,0 STARLINK-5863,1 55922U 23037J   23352.59364344  .00001236  00000-0  11132-3 0  9994,2 55922  69.9980 192.0112 0002950 269.5597  90.5224 14.98345183 41846,6950.146,96.106,574.061,569.961,0.0
55922.0,STARLINK-5863,PAYLOAD,2023-12-18 17:27:06,14.98372484,0.0002594,69.9983,191.6741,276.4249,83.6615,-0.00033953,-4.146e-05,0.0,0 STARLINK-5863,1 55922U 23037J   23352.72715965 -.00004146  00000-0 -33953-3 0  9998,2 55922  69.9983 191.6741 0002594 276.4249  83.6615 14.98372484 42209,6950.062,96.104,573.729,570.124,0.0
55922.0,STARLINK-5863,PAYLOAD,2023-12-18 22:15:30,14.98371854,0.0002529,69.9982,191.1702,265.8384,94.2486,-0.00029714,-3.64e-05,0.0,0 STARLINK-5863,1 55922U 23037J   23352.92743320 -.00003640  00000-0 -29714-3 0  9994,2 55922  69.9982 191.1702 0002529 265.8384  94.2486 14.98371854 41898,6950.063,96.104,573.686,570.171,0.0
55922.0,STARLINK-5863,PAYLOAD,2023-12-19 14:16:51,14.98339136,0.0002502,70.0,189.4886,240.2499,119.8411,6.3267e-06,-1.7e-07,0.0,0 STARLINK-5863,1 55922U 23037J   23353.59504051 -.00000017  00000-0  63267-5 0  9991,2 55922  70.0000 189.4886 0002502 240.2499 119.8411 14.98339136 41990,6950.165,96.106,573.769,570.291,0.0
55922.0,STARLINK-5863,PAYLOAD,2023-12-19 17:29:07,14.98338261,0.00027,69.9996,189.1532,240.7189,119.3701,-2.1371e-05,-3.48e-06,0.0,0 STARLINK-5863,1 55922U 23037J   23353.72856090 -.00000348  00000-0 -21371-4 0  9996,2 55922  69.9996 189.1532 0002700 240.7189 119.3701 14.98338261 42353,6950.167,96.106,573.909,570.156,0.0
55922.0,STARLINK-5863,PAYLOAD,2023-12-19 22:17:32,14.98332451,0.0002811,69.9992,188.6481,243.0734,117.0138,-9.3806e-05,-1.212e-05,0.0,0 STARLINK-5863,1 55922U 23037J   23353.92884535 -.00001212  00000-0 -93806-4 0  9996,2 55922  69.9992 188.6481 0002811 243.0734 117.0138 14.98332451 42388,6950.185,96.107,574.004,570.097,0.0
55922.0,STARLINK-5863,PAYLOAD,2023-12-20 22:19:31,14.98367746,0.0002614,69.9987,186.1219,248.1148,111.9733,-0.00061649,-7.448e-05,0.0,0 STARLINK-5863,1 55922U 23037J   23354.93023122 -.00007448  00000-0 -61649-3 0  9991,2 55922  69.9987 186.1219 0002614 248.1148 111.9733 14.98367746 42198,6950.076,96.105,573.758,570.124,0.0
55922.0,STARLINK-5863,PAYLOAD,2023-12-21 14:20:53,14.98328026,0.0003018,69.9985,184.4379,264.3411,95.7404,3.4111e-05,3.14e-06,0.0,0 STARLINK-5863,1 55922U 23037J   23355.59783855  .00000314  00000-0  34111-4 0  9998,2 55922  69.9985 184.4379 0003018 264.3411  95.7404 14.98328026 42299,6950.199,96.107,574.162,569.966,0.0
55922.0,STARLINK-5863,PAYLOAD,2023-12-21 15:57:01,14.98328227,0.0003017,69.9985,184.2696,264.4662,95.6153,3.6161e-05,3.38e-06,0.0,0 STARLINK-5863,1 55922U 23037J   23355.66459843  .00000338  00000-0  36161-4 0  9996,2 55922  69.9985 184.2696 0003017 264.4662  95.6153 14.98328227 42649,6950.198,96.107,574.16,569.966,0.0
55922.0,STARLINK-5863,PAYLOAD,2023-12-21 22:21:33,14.98329135,0.0002999,69.9987,183.5967,263.7637,96.318,4.3499e-05,4.26e-06,0.0,0 STARLINK-5863,1 55922U 23037J   23355.93163788  .00000426  00000-0  43499-4 0  9996,2 55922  69.9987 183.5967 0002999 263.7637  96.3180 14.98329135 42340,6950.196,96.107,574.145,569.976,0.0
55922.0,STARLINK-5863,PAYLOAD,2023-12-22 14:22:54,14.98345176,0.0002928,69.9991,181.9144,264.2571,95.8255,-0.00033344,-4.071e-05,0.0,0 STARLINK-5863,1 55922U 23037J   23356.59924144 -.00004071  00000-0 -33344-3 0  9999,2 55922  69.9991 181.9144 0002928 264.2571  95.8255 14.98345176 42440,6950.146,96.106,574.046,569.976,0.0
55922.0,STARLINK-5863,PAYLOAD,2023-12-22 19:11:18,14.98323014,0.0002891,69.999,181.409,265.1276,94.9553,1.9765e-05,1.43e-06,0.0,0 STARLINK-5863,1 55922U 23037J   23356.79952412  .00000143  00000-0  19765-4 0  9996,2 55922  69.9990 181.4090 0002891 265.1276  94.9553 14.98323014 42814,6950.214,96.107,574.089,570.07,0.0
55922.0,STARLINK-5863,PAYLOAD,2023-12-22 22:23:35,14.98323915,0.0002918,69.9989,181.0726,264.1205,95.9621,-2.8805e-05,-4.37e-06,0.0,0 STARLINK-5863,1 55922U 23037J   23356.93304525 -.00000437  00000-0 -28805-4 0  9991,2 55922  69.9989 181.0726 0002918 264.1205  95.9621 14.98323915 42496,6950.212,96.107,574.105,570.049,0.0
